#dP2019  6 19  0  0  0.00000000      96 __u+U IGS08 FIT  IAC
## 2058 259200.00000000   900.00000000 58653 0.0000000000000
+   98   C01C02C03C04C05C06C07C08C09C10C11C12C13C14C16E01E02
+        E03E04E05E07E08E09E11E12E13E14E15E18E19E21E24E25E26
+        E27E30E31E33E36G01G02G03G04G05G06G07G08G09G10G11G12
+        G13G14G15G16G17G18G19G20G21G22G23G24G25G26G27G28G29
+        G30G31G32J01J02J03J07R01R02R03R04R05R07R08R09R10R11
+        R13R14R15R16R17R18R19R20R21R22R23R24R26  0  0  0  0
++        13 13 13 13 13  8  8  8  8 10  7  7  8  8  8  4  4
++         5  4  5  4  4  5  4  5  4  4  4  4  4  4  4  4  4
++         4  4  4  4  5  3  3  3  4  3  3  3  3  3  3  3  3
++         3  3  3  3  3  3  3  3  3  3  3  3  3  3  3  3  3
++         3  3  3  8  9  9 16  5  5  5  5  5  5  5  5  5  7
++         7  5  5  6  5  5  6  5  5  5  5  6  8  0  0  0  0
%c M  cc GPS ccc cccc cccc cccc cccc ccccc ccccc ccccc ccccc
%c cc cc ccc ccc cccc cccc cccc cccc ccccc ccccc ccccc ccccc
%f  1.2500000  1.025000000  0.00000000000  0.000000000000000
%f  0.0000000  0.000000000  0.00000000000  0.000000000000000
%i    0    0    0    0      0      0      0      0         0
%i    0    0    0    0      0      0      0      0         0
/* INFORMATION & ANALYSIS CENTER (IAC)            FINAL DATA
/* S/V CLOCKS ARE ALIGNED TO GPS & GLONASS TIME RESPECTIVELY
/* USING THE BROADCAST EPHEMERIS                            
/* PCV:IGS14_2056 OL/AL:FES2004  NONE     YN ORB:CoN CLK:CoN
*  2019 06 19 12 45  0.00000000
PC01 -32361.514576  27019.360852   -914.363702    732.685072
PC02   4380.676861  41921.943018   1365.739882     86.960993
PC03 -14850.539701  39493.911031    125.572125    569.920315
PC04 -39629.153077  14400.520913   -332.252043   -200.946712
PC05  21896.704535  36056.331246   1052.149638   -275.300951
PC06 -11606.193183  36703.347961  17970.355799    612.380094
PC07 -14622.339981  21620.664891 -33013.077741    134.091505
PC08 -24613.939172  29076.952782  17853.707459    165.945604
PC09  -1891.119057  42252.123163   2437.083522    854.034758
PC10   3824.342261  27959.213081 -31063.446669   -858.650564
PC11  11340.955502  11922.749698  22576.420065    268.830835
PC12  -7801.829779  26582.951254   3029.668649    780.429221
PC13 -11295.557760  29710.771735  27622.544806   -787.500192
PC14  15314.869477  22956.799990   4359.492918    559.196588
PC16  -8729.398419  38398.842213  15338.892894   -913.606291
PE01 -27763.185707  -9385.134033   4189.462846   -629.511544
PE02  27778.446243   9353.967275  -4139.632358     65.523769
PE03  18070.479558  14310.699551 -18552.606823   -179.091002
PE04 -15641.905066   7374.969990  24035.464607   -306.082795
PE05   9926.495926  27801.243090  -2144.848776   -473.726723
PE07   3955.288842 -24964.288879 -15399.184343   -210.303667
PE08  15386.354332  -7589.300930 -24111.113768   6337.290743
PE09  -3679.671146  24962.525272  15476.278419   6404.060546
PE11 -14755.386189  24246.018778   8431.659517   5673.479309
PE12 -23330.452485  14691.604183 -10800.813178   6338.915818
PE13  14740.645939 -24274.915624  -8328.810388    388.752100
PE14  -7230.679751  27014.975568  -5139.890192   -611.297063
PE15  23192.155788 -15085.923715  10516.798305    906.250766
PE18  -5005.724621 -26920.011144 -10182.223801   -707.664988
PE19 -17664.967086 -16197.251278  17382.007230     -5.684122
PE21 -13424.962990 -16870.412037  20282.418548   -539.877824
PE24  -8557.907390  14535.315990 -24334.745971   6020.409264
PE25  13341.359704  16878.069616 -20322.968798   1768.355816
PE26  -2369.871704 -19360.926333 -22264.840686   4435.603391
PE27   8808.224496 -14416.517984  24306.393803    446.051253
PE30  25721.485328  -3531.359882  14208.633536   4777.699118
PE31 -25823.425609   3498.966488 -14044.317050   -465.768416
PE33 -18087.016323  -2949.580673 -23244.639788   -469.931625
PE36   2369.904159  19268.513319  22348.010560    697.793871
PG01   4831.517249 -17335.123446 -19610.260450    -45.132722
PG02 -21326.673526  15465.825569   3256.337028   -240.977168
PG03  -5496.054974 -18599.051321 -18229.376795    184.976753
PG04 -11799.765617 -15043.973272  18452.022646    168.332418
PG05 -14810.020357   8114.476303  20425.108761      0.468687
PG06 -24100.535360   4851.054962 -10054.538756    173.547254
PG07 -10713.954371 -11721.116477  21608.063955    -47.595889
PG08   5610.256040 -24897.733500   6986.825192   -148.020055
PG09  -9019.330431 -20914.674910  13615.395586    388.439554
PG10  23827.645218  10495.186452  -5699.846687     11.192194
PG11   5199.556721 -23184.395673 -12659.971895   -580.948092
PG12   2487.969206  18084.981122 -19568.896029    231.709367
PG13 -12694.149448  18913.248652  13508.982699    -58.356190
PG14  15307.742522  -4144.377244 -20953.020939    -75.379130
PG15  -3064.364786  25483.037765   5717.295644   -306.107855
PG16  14956.838146  -6122.024674  20976.346216    -49.344098
PG17 -13880.402768  -5431.576376 -21588.235343     74.352264
PG18  12991.244438 -18868.097715 -13827.293194     63.204409
PG19 -15202.866227   2639.663643 -21931.462765   -304.658630
PG20  22217.663717  14090.204670   4116.713574    525.477904
PG21  15396.184725   8185.273291  20793.018378   -170.268244
PG22   2065.550914 -16411.480260 -20563.729312   -719.308179
PG23  -1193.760350 -26211.897638   2626.008169   -181.075693
PG24  -7228.587815  18848.907262 -17247.127094    -67.654675
PG25  15145.425522  18971.879480 -11281.698407   -766.981795
PG26  21891.252463    636.312732  15129.042434    230.804991
PG27  11965.744930 -16587.145401  16664.189834   -162.057188
PG28 -22344.864134 -13089.993948  -5048.541622    767.329884
PG29   4544.996377  23802.667968  10826.567586    172.513240
PG30 -19873.065338  -4553.600516  17149.736319   -126.885946
PG31  24856.620923  -5463.286089  -8356.804403     30.028584
PG32  15048.566351   3709.739857 -21514.969283    -37.103810
PJ01 -25664.846567  22426.852658  29929.510968   -285.463952
PJ02 -32948.917772  16421.657101 -16122.653833     -0.423076
PJ03 -20928.933710  31471.976965 -14177.877099      1.048275
PJ07 -25414.541110  33655.566176      6.634407     -0.025494
PR01   7005.172249  -9662.663559 -22537.443114     45.563019
PR02  -6839.860198 -22314.484600 -10188.262288    374.279582
PR03 -14833.617156 -19407.157229   7318.499972     -3.028094
PR04 -14013.249636  -4727.408850  20801.329056    310.702030
PR05  -5387.525321  11634.607308  22070.964687     30.339681
PR07  14904.803473  19233.372966  -7675.088009    -22.034849
PR08  14222.478809   5555.079221 -20377.495395     17.162258
PR09   3811.222909  11075.793476 -22639.891568     75.860298
PR10  18670.637129   7712.234537 -15539.445679     52.533812
PR11  25399.853798   -536.910930   1974.610177    -69.953971
PR13  -1744.184552 -10858.059632  22998.653055    -25.051020
PR14 -18944.776361  -7628.630106  15306.722286     40.097898
PR15 -25488.083812     33.055852  -1039.777556    102.629967
PR16 -17034.293948   8233.083639 -17071.121289      8.387452
PR17  -5484.838322 -10816.641455 -22441.823084    236.981447
PR18 -14256.867136   5709.739163 -20376.572530     -2.717962
PR19 -15774.297696  18634.742402  -7393.699342    -37.164603
PR20  -7400.948810  21413.456860  11770.299058   -381.733225
PR21   5882.888997  10146.970032  22643.687788    -54.885714
PR22  14959.534536  -8092.794426  18956.674223    -24.639236
PR23  13993.167495 -21234.421301   1957.256254    235.382289
PR24   5741.426005 -20953.404977 -13382.138573   -181.707625
PR26  -8646.206445  22159.874395   9186.672187     -5.377460
EOF
